{"type": "FeatureCollection", "features": [ {"type": "Feature", "properties": {"norad_id": 57401, "name": "TIANMU-1 09", "group": "weather", "lat": 72.89493314234764, "lon": -125.66156392009003, "alt_km": 470.3302034540102, "timestamp": "2025-12-06T11:28:10.672533+00:00", "meta": {"OBJECT_NAME": "TIANMU-1 09", "OBJECT_ID": "2023-101C", "EPOCH": "2025-12-05T22:26:09.299904", "MEAN_MOTION": 15.27932418, "ECCENTRICITY": 0.00068087, "INCLINATION": 97.2829, "RA_OF_ASC_NODE": 29.2519, "ARG_OF_PERICENTER": 102.2305, "MEAN_ANOMALY": 257.9697, "EPHEMERIS_TYPE": 0, "CLASSIFICATION_TYPE": "U", "NORAD_CAT_ID": 57401, "ELEMENT_SET_NO": 999, "REV_AT_EPOCH": 13211, "BSTAR": 0.00042201003, "MEAN_MOTION_DOT": 0.00011445, "MEAN_MOTION_DDOT": 0}, "tle": {"line1": "1 57401U 23101C   25339.93482986  .00011445  00000+0  42201-3 0  9991", "line2": "2 57401  97.2829  29.2519 0006808 102.2305 257.9697 15.27932418132114"}}, "geometry": {"type": "Point", "coordinates": [-125.66156392009003, 72.89493314234764]}}, {"type": "Feature", "properties": {"norad_id": 57402, "name": "TIANMU-1 10", "group": "weather", "lat": -79.4848288916867, "lon": 74.23831773644524, "alt_km": 495.1944578694547, "timestamp": "2025-12-06T11:28:10.672543+00:00", "meta": {"OBJECT_NAME": "TIANMU-1 10", "OBJECT_ID": "2023-101D", "EPOCH": "2025-12-05T23:15:22.268736", "MEAN_MOTION": 15.27922752, "ECCENTRICITY": 0.00085312, "INCLINATION": 97.2909, "RA_OF_ASC_NODE": 30.1281, "ARG_OF_PERICENTER": 103.0252, "MEAN_ANOMALY": 257.1941, "EPHEMERIS_TYPE": 0, "CLASSIFICATION_TYPE": "U", "NORAD_CAT_ID": 57402, "ELEMENT_SET_NO": 999, "REV_AT_EPOCH": 13211, "BSTAR": 0.00043592114, "MEAN_MOTION_DOT": 0.00011826, "MEAN_MOTION_DDOT": 0}, "tle": {"line1": "1 57402U 23101D   25339.96900774  .00011826  00000+0  43592-3 0  9992", "line2": "2 57402  97.2909  30.1281 0008531 103.0252 257.1941 15.27922752132110"}}, "geometry": {"type": "Point", "coordinates": [74.23831773644524, -79.4848288916867]}}, {"type": "Feature", "properties": {"norad_id": 57490, "name": "FENGYUN 3F", "group": "weather", "lat": 81.2826291901502, "lon": -42.5129307142266, "alt_km": 817.780802207446, "timestamp": "2025-12-06T11:28:10.672555+00:00", "meta": {"OBJECT_NAME": "FENGYUN 3F", "OBJECT_ID": "2023-111A", "EPOCH": "2025-12-05T21:30:59.912064", "MEAN_MOTION": 14.19890753, "ECCENTRICITY": 6.642e-05, "INCLINATION": 98.7094, "RA_OF_ASC_NODE": 48.3002, "ARG_OF_PERICENTER": 89.2392, "MEAN_ANOMALY": 270.886, "EPHEMERIS_TYPE": 0, "CLASSIFICATION_TYPE": "U", "NORAD_CAT_ID": 57490, "ELEMENT_SET_NO": 999, "REV_AT_EPOCH": 12143, "BSTAR": 0.00011070029, "MEAN_MOTION_DOT": 1.91e-06, "MEAN_MOTION_DDOT": 0}, "tle": {"line1": "1 57490U 23111A   25339.89652676  .00000191  00000+0  11070-3 0  9996", "line2": "2 57490  98.7094  48.3002 0000664  89.2392 270.8860 14.19890753121439"}}, "geometry": {"type": "Point", "coordinates": [-42.5129307142266, 81.2826291901502]}}, {"type": "Feature", "properties": {"norad_id": 58584, "name": "ARKTIKA-M 2", "group": "weather", "lat": 56.77836459170509, "lon": -133.94965373410346, "alt_km": 33845.70355839172, "timestamp": "2025-12-06T11:28:10.672568+00:00", "meta": {"OBJECT_NAME": "ARKTIKA-M 2", "OBJECT_ID": "2023-198A", "EPOCH": "2025-12-03T08:34:19.284960", "MEAN_MOTION": 2.00605176, "ECCENTRICITY": 0.68642509, "INCLINATION": 63.2223, "RA_OF_ASC_NODE": 175.9121, "ARG_OF_PERICENTER": 268.1397, "MEAN_ANOMALY": 18.842, "EPHEMERIS_TYPE": 0, "CLASSIFICATION_TYPE": "U", "NORAD_CAT_ID": 58584, "ELEMENT_SET_NO": 999, "REV_AT_EPOCH": 1439, "BSTAR": 0, "MEAN_MOTION_DOT": 2.24e-06, "MEAN_MOTION_DDOT": 0}, "tle": {"line1": "1 58584U 23198A   25337.35716765  .00000224  00000+0  00000+0 0  9999", "line2": "2 58584  63.2223 175.9121 6864250 268.1397  18.8420  2.00605176 14390"}}, "geometry": {"type": "Point", "coordinates": [-133.94965373410346, 56.77836459170509]}}, {"type": "Feature", "properties": {"norad_id": 58645, "name": "TIANMU-1 11", "group": "weather", "lat": 5.224256289201082, "lon": -179.11100204380165, "alt_km": 500.27926763846335, "timestamp": "2025-12-06T11:28:10.672581+00:00", "meta": {"OBJECT_NAME": "TIANMU-1 11", "OBJECT_ID": "2023-205A", "EPOCH": "2025-12-05T23:40:42.823200", "MEAN_MOTION": 15.2447544, "ECCENTRICITY": 0.00085556, "INCLINATION": 97.3603, "RA_OF_ASC_NODE": 359.7292, "ARG_OF_PERICENTER": 337.2975, "MEAN_ANOMALY": 22.7883, "EPHEMERIS_TYPE": 0, "CLASSIFICATION_TYPE": "U", "NORAD_CAT_ID": 58645, "ELEMENT_SET_NO": 999, "REV_AT_EPOCH": 10806, "BSTAR": 0.00039573533, "MEAN_MOTION_DOT": 9.664e-05, "MEAN_MOTION_DDOT": 0}, "tle": {"line1": "1 58645U 23205A   25339.98660675  .00009664  00000+0  39574-3 0  9994", "line2": "2 58645  97.3603 359.7292 0008555 337.2975  22.7883 15.24475440108065"}}, "geometry": {"type": "Point", "coordinates": [-179.11100204380165, 5.224256289201082]}}, {"type": "Feature", "properties": {"norad_id": 58646, "name": "TIANMU-1 12", "group": "weather", "lat": 29.044383928916886, "lon": -4.096277647141789, "alt_km": 489.72769053322645, "timestamp": "2025-12-06T11:28:10.672591+00:00", "meta": {"OBJECT_NAME": "TIANMU-1 12", "OBJECT_ID": "2023-205B", "EPOCH": "2025-12-05T22:44:17.909664", "MEAN_MOTION": 15.24388825, "ECCENTRICITY": 0.00063977, "INCLINATION": 97.3591, "RA_OF_ASC_NODE": 359.4985, "ARG_OF_PERICENTER": 322.207, "MEAN_ANOMALY": 37.8718, "EPHEMERIS_TYPE": 0, "CLASSIFICATION_TYPE": "U", "NORAD_CAT_ID": 58646, "ELEMENT_SET_NO": 999, "REV_AT_EPOCH": 10804, "BSTAR": 0.00042698785, "MEAN_MOTION_DOT": 0.00010403, "MEAN_MOTION_DDOT": 0}, "tle": {"line1": "1 58646U 23205B   25339.94742951  .00010403  00000+0  42699-3 0  9994", "line2": "2 58646  97.3591 359.4985 0006397 322.2070  37.8718 15.24388825108042"}}, "geometry": {"type": "Point", "coordinates": [-4.096277647141789, 29.044383928916886]}}, {"type": "Feature", "properties": {"norad_id": 58647, "name": "TIANMU-1 13", "group": "weather", "lat": -24.396061992883034, "lon": 176.85596437243393, "alt_km": 498.34800209272, "timestamp": "2025-12-06T11:28:10.672601+00:00", "meta": {"OBJECT_NAME": "TIANMU-1 13", "OBJECT_ID": "2023-205C", "EPOCH": "2025-12-05T23:32:48.837984", "MEAN_MOTION": 15.24397137, "ECCENTRICITY": 0.00061896, "INCLINATION": 97.3619, "RA_OF_ASC_NODE": 359.7296, "ARG_OF_PERICENTER": 298.1427, "MEAN_ANOMALY": 61.9184, "EPHEMERIS_TYPE": 0, "CLASSIFICATION_TYPE": "U", "NORAD_CAT_ID": 58647, "ELEMENT_SET_NO": 999, "REV_AT_EPOCH": 10804, "BSTAR": 0.00038976766, "MEAN_MOTION_DOT": 9.491e-05, "MEAN_MOTION_DDOT": 0}, "tle": {"line1": "1 58647U 23205C   25339.98112081  .00009491  00000+0  38977-3 0  9993", "line2": "2 58647  97.3619 359.7296 0006189 298.1427  61.9184 15.24397137108049"}}, "geometry": {"type": "Point", "coordinates": [176.85596437243393, -24.396061992883034]}}, {"type": "Feature", "properties": {"norad_id": 58648, "name": "TIANMU-1 14", "group": "weather", "lat": -63.135338888626805, "lon": 14.34579479502482, "alt_km": 494.9867021923883, "timestamp": "2025-12-06T11:28:10.672613+00:00", "meta": {"OBJECT_NAME": "TIANMU-1 14", "OBJECT_ID": "2023-205D", "EPOCH": "2025-12-05T23:08:48.191424", "MEAN_MOTION": 15.24380269, "ECCENTRICITY": 0.00070948, "INCLINATION": 97.3551, "RA_OF_ASC_NODE": 359.0683, "ARG_OF_PERICENTER": 302.5614, "MEAN_ANOMALY": 57.4938, "EPHEMERIS_TYPE": 0, "CLASSIFICATION_TYPE": "U", "NORAD_CAT_ID": 58648, "ELEMENT_SET_NO": 999, "REV_AT_EPOCH": 10804, "BSTAR": 0.00038767972, "MEAN_MOTION_DOT": 9.436e-05, "MEAN_MOTION_DDOT": 0}, "tle": {"line1": "1 58648U 23205D   25339.96444666  .00009436  00000+0  38768-3 0  9996", "line2": "2 58648  97.3551 359.0683 0007094 302.5614  57.4938 15.24380269108047"}}, "geometry": {"type": "Point", "coordinates": [14.34579479502482, -63.135338888626805]}}, {"type": "Feature", "properties": {"norad_id": 58660, "name": "TIANMU-1 19", "group": "weather", "lat": 62.74496228010557, "lon": -73.77667503626662, "alt_km": 479.39821279006264, "timestamp": "2025-12-06T11:28:10.672624+00:00", "meta": {"OBJECT_NAME": "TIANMU-1 19", "OBJECT_ID": "2023-208A", "EPOCH": "2025-12-05T22:23:09.786624", "MEAN_MOTION": 15.27659931, "ECCENTRICITY": 0.00040924, "INCLINATION": 97.4398, "RA_OF_ASC_NODE": 90.9848, "ARG_OF_PERICENTER": 283.5485, "MEAN_ANOMALY": 76.5298, "EPHEMERIS_TYPE": 0, "CLASSIFICATION_TYPE": "U", "NORAD_CAT_ID": 58660, "ELEMENT_SET_NO": 999, "REV_AT_EPOCH": 10778, "BSTAR": 0.00053577118, "MEAN_MOTION_DOT": 0.00014426, "MEAN_MOTION_DDOT": 0}, "tle": {"line1": "1 58660U 23208A   25339.93275216  .00014426  00000+0  53577-3 0  9993", "line2": "2 58660  97.4398  90.9848 0004092 283.5485  76.5298 15.27659931107783"}}, "geometry": {"type": "Point", "coordinates": [-73.77667503626662, 62.74496228010557]}}, {"type": "Feature", "properties": {"norad_id": 58661, "name": "TIANMU-1 20", "group": "weather", "lat": 16.11248162691977, "lon": -85.86829712097858, "alt_km": 482.7349904426137, "timestamp": "2025-12-06T11:28:10.672634+00:00", "meta": {"OBJECT_NAME": "TIANMU-1 20", "OBJECT_ID": "2023-208B", "EPOCH": "2025-12-05T22:11:21.081984", "MEAN_MOTION": 15.28852239, "ECCENTRICITY": 0.00063996, "INCLINATION": 97.4335, "RA_OF_ASC_NODE": 91.4176, "ARG_OF_PERICENTER": 294.6136, "MEAN_ANOMALY": 65.4437, "EPHEMERIS_TYPE": 0, "CLASSIFICATION_TYPE": "U", "NORAD_CAT_ID": 58661, "ELEMENT_SET_NO": 999, "REV_AT_EPOCH": 10785, "BSTAR": 0.00051690854, "MEAN_MOTION_DOT": 0.00014437, "MEAN_MOTION_DDOT": 0}, "tle": {"line1": "1 58661U 23208B   25339.92454956  .00014437  00000+0  51691-3 0  9990", "line2": "2 58661  97.4335  91.4176 0006399 294.6136  65.4437 15.28852239107850"}}, "geometry": {"type": "Point", "coordinates": [-85.86829712097858, 16.11248162691977]}}]}